{
  "type": "FeatureCollection",
  "features": [
    {
      "type": "Feature",
      "properties": {
        "norad_id": 30396,
        "name": "FENGYUN 1C DEB",
        "group": "fengyun-1c-debris",
        "lat": -3.430547294057524,
        "lon": -2.18703040411568,
        "alt_km": 982.6928957865621,
        "timestamp": "2025-12-19T06:59:44.184748+00:00",
        "meta_object_name": "FENGYUN 1C DEB",
        "meta_object_id": "1999-025ADK",
        "meta_epoch": "2025-12-18T22:39:31.534272",
        "meta_mean_motion": 13.87170719,
        "meta_eccentricity": 0.01351775,
        "meta_inclination": 98.2238,
        "meta_ra_of_asc_node": 357.0104,
        "meta_arg_of_pericenter": 112.677,
        "meta_mean_anomaly": 311.6483,
        "meta_ephemeris_type": 0,
        "meta_classification_type": "U",
        "meta_norad_cat_id": 30396,
        "meta_element_set_no": 999,
        "meta_rev_at_epoch": 95665,
        "meta_bstar": 0.00010375282,
        "meta_mean_motion_dot": 9.6e-07,
        "meta_mean_motion_ddot": 0,
        "tle_line1": "1 30396U 99025ADK 25352.94411498  .00000096  00000+0  10375-3 0  9996",
        "tle_line2": "2 30396  98.2238 357.0104 0135177 112.6770 311.6483 13.87170719956654"
      },
      "geometry": {
        "type": "Point",
        "coordinates": [
          -2.18703040411568,
          -3.430547294057524
        ]
      }
    },
    {
      "type": "Feature",
      "properties": {
        "norad_id": 30397,
        "name": "FENGYUN 1C DEB",
        "group": "fengyun-1c-debris",
        "lat": 24.79395110622318,
        "lon": -35.128859354445886,
        "alt_km": 878.5239987968143,
        "timestamp": "2025-12-19T06:59:44.184758+00:00",
        "meta_object_name": "FENGYUN 1C DEB",
        "meta_object_id": "1999-025ADL",
        "meta_epoch": "2025-12-18T22:14:56.295744",
        "meta_mean_motion": 13.98606163,
        "meta_eccentricity": 0.01496047,
        "meta_inclination": 98.405,
        "meta_ra_of_asc_node": 140.6207,
        "meta_arg_of_pericenter": 75.2174,
        "meta_mean_anomaly": 43.9683,
        "meta_ephemeris_type": 0,
        "meta_classification_type": "U",
        "meta_norad_cat_id": 30397,
        "meta_element_set_no": 999,
        "meta_rev_at_epoch": 95851,
        "meta_bstar": 0.00086992731,
        "meta_mean_motion_dot": 1.336e-05,
        "meta_mean_motion_ddot": 0,
        "tle_line1": "1 30397U 99025ADL 25352.92704046  .00001336  00000+0  86993-3 0  9996",
        "tle_line2": "2 30397  98.4050 140.6207 0149604  75.2174  43.9683 13.98606163958514"
      },
      "geometry": {
        "type": "Point",
        "coordinates": [
          -35.128859354445886,
          24.79395110622318
        ]
      }
    },
    {
      "type": "Feature",
      "properties": {
        "norad_id": 30398,
        "name": "FENGYUN 1C DEB",
        "group": "fengyun-1c-debris",
        "lat": 74.8726595715811,
        "lon": 109.29513550531128,
        "alt_km": 1087.9661426051034,
        "timestamp": "2025-12-19T06:59:44.184768+00:00",
        "meta_object_name": "FENGYUN 1C DEB",
        "meta_object_id": "1999-025ADM",
        "meta_epoch": "2025-12-18T16:41:34.180800",
        "meta_mean_motion": 13.78703935,
        "meta_eccentricity": 0.01725817,
        "meta_inclination": 99.7143,
        "meta_ra_of_asc_node": 249.3652,
        "meta_arg_of_pericenter": 280.5056,
        "meta_mean_anomaly": 104.8727,
        "meta_ephemeris_type": 0,
        "meta_classification_type": "U",
        "meta_norad_cat_id": 30398,
        "meta_element_set_no": 999,
        "meta_rev_at_epoch": 94839,
        "meta_bstar": 0.0003677505,
        "meta_mean_motion_dot": 3.69e-06,
        "meta_mean_motion_ddot": 0,
        "tle_line1": "1 30398U 99025ADM 25352.69553450  .00000369  00000+0  36775-3 0  9990",
        "tle_line2": "2 30398  99.7143 249.3652 0172581 280.5056 104.8727 13.78703935948397"
      },
      "geometry": {
        "type": "Point",
        "coordinates": [
          109.29513550531128,
          74.8726595715811
        ]
      }
    },
    {
      "type": "Feature",
      "properties": {
        "norad_id": 30400,
        "name": "FENGYUN 1C DEB",
        "group": "fengyun-1c-debris",
        "lat": -54.993473275978076,
        "lon": -65.750596447312,
        "alt_km": 706.5219158624113,
        "timestamp": "2025-12-19T06:59:44.184779+00:00",
        "meta_object_name": "FENGYUN 1C DEB",
        "meta_object_id": "1999-025ADP",
        "meta_epoch": "2025-12-18T07:59:10.762080",
        "meta_mean_motion": 14.10070191,
        "meta_eccentricity": 0.02265588,
        "meta_inclination": 99.1567,
        "meta_ra_of_asc_node": 279.9588,
        "meta_arg_of_pericenter": 320.3492,
        "meta_mean_anomaly": 160.2124,
        "meta_ephemeris_type": 0,
        "meta_classification_type": "U",
        "meta_norad_cat_id": 30400,
        "meta_element_set_no": 999,
        "meta_rev_at_epoch": 95593,
        "meta_bstar": 0.0033870553,
        "meta_mean_motion_dot": 7.555e-05,
        "meta_mean_motion_ddot": 0,
        "tle_line1": "1 30400U 99025ADP 25352.33276345  .00007555  00000+0  33871-2 0  9997",
        "tle_line2": "2 30400  99.1567 279.9588 0226558 320.3492 160.2124 14.10070191955936"
      },
      "geometry": {
        "type": "Point",
        "coordinates": [
          -65.750596447312,
          -54.993473275978076
        ]
      }
    },
    {
      "type": "Feature",
      "properties": {
        "norad_id": 30401,
        "name": "FENGYUN 1C DEB",
        "group": "fengyun-1c-debris",
        "lat": 28.35584040512567,
        "lon": -134.53610454385333,
        "alt_km": 782.5350365761578,
        "timestamp": "2025-12-19T06:59:44.184788+00:00",
        "meta_object_name": "FENGYUN 1C DEB",
        "meta_object_id": "1999-025ADQ",
        "meta_epoch": "2025-12-18T02:16:24.686688",
        "meta_mean_motion": 14.27995493,
        "meta_eccentricity": 0.01080314,
        "meta_inclination": 98.9471,
        "meta_ra_of_asc_node": 229.1156,
        "meta_arg_of_pericenter": 112.0778,
        "meta_mean_anomaly": 249.1915,
        "meta_ephemeris_type": 0,
        "meta_classification_type": "U",
        "meta_norad_cat_id": 30401,
        "meta_element_set_no": 999,
        "meta_rev_at_epoch": 98380,
        "meta_bstar": 0.00011793737,
        "meta_mean_motion_dot": 2.66e-06,
        "meta_mean_motion_ddot": 0,
        "tle_line1": "1 30401U 99025ADQ 25352.09473017  .00000266  00000+0  11794-3 0  9999",
        "tle_line2": "2 30401  98.9471 229.1156 0108031 112.0778 249.1915 14.27995493983805"
      },
      "geometry": {
        "type": "Point",
        "coordinates": [
          -134.53610454385333,
          28.35584040512567
        ]
      }
    },
    {
      "type": "Feature",
      "properties": {
        "norad_id": 30403,
        "name": "FENGYUN 1C DEB",
        "group": "fengyun-1c-debris",
        "lat": 49.16155293979279,
        "lon": 61.2510906350669,
        "alt_km": 778.3069029218896,
        "timestamp": "2025-12-19T06:59:44.184799+00:00",
        "meta_object_name": "FENGYUN 1C DEB",
        "meta_object_id": "1999-025ADS",
        "meta_epoch": "2025-12-18T22:19:06.129120",
        "meta_mean_motion": 14.2157948,
        "meta_eccentricity": 0.00744298,
        "meta_inclination": 99.06,
        "meta_ra_of_asc_node": 71.518,
        "meta_arg_of_pericenter": 4.7661,
        "meta_mean_anomaly": 355.4208,
        "meta_ephemeris_type": 0,
        "meta_classification_type": "U",
        "meta_norad_cat_id": 30403,
        "meta_element_set_no": 999,
        "meta_rev_at_epoch": 96894,
        "meta_bstar": 0.0014619287,
        "meta_mean_motion_dot": 3.25e-05,
        "meta_mean_motion_ddot": 0,
        "tle_line1": "1 30403U 99025ADS 25352.92993205  .00003250  00000+0  14619-2 0  9993",
        "tle_line2": "2 30403  99.0600  71.5180 0074429   4.7661 355.4208 14.21579480968942"
      },
      "geometry": {
        "type": "Point",
        "coordinates": [
          61.2510906350669,
          49.16155293979279
        ]
      }
    },
    {
      "type": "Feature",
      "properties": {
        "norad_id": 30404,
        "name": "FENGYUN 1C DEB",
        "group": "fengyun-1c-debris",
        "lat": -43.83560697234918,
        "lon": -104.76222625252716,
        "alt_km": 1193.5001294141503,
        "timestamp": "2025-12-19T06:59:44.184809+00:00",
        "meta_object_name": "FENGYUN 1C DEB",
        "meta_object_id": "1999-025ADT",
        "meta_epoch": "2025-12-17T23:19:14.979360",
        "meta_mean_motion": 13.34352849,
        "meta_eccentricity": 0.03760541,
        "meta_inclination": 99.8325,
        "meta_ra_of_asc_node": 83.5521,
        "meta_arg_of_pericenter": 124.0977,
        "meta_mean_anomaly": 239.6433,
        "meta_ephemeris_type": 0,
        "meta_classification_type": "U",
        "meta_norad_cat_id": 30404,
        "meta_element_set_no": 999,
        "meta_rev_at_epoch": 58106,
        "meta_bstar": 0.00066841715,
        "meta_mean_motion_dot": 4.58e-06,
        "meta_mean_motion_ddot": 0,
        "tle_line1": "1 30404U 99025ADT 25351.97170115  .00000458  00000+0  66842-3 0  9998",
        "tle_line2": "2 30404  99.8325  83.5521 0376054 124.0977 239.6433 13.34352849581060"
      },
      "geometry": {
        "type": "Point",
        "coordinates": [
          -104.76222625252716,
          -43.83560697234918
        ]
      }
    }
  ]
}